[{"OBJECT_NAME":"STARLINK-31886","OBJECT_ID":"2024-084J","EPOCH":"2026-03-09T07:29:29.859360","MEAN_MOTION":15.27572869,"ECCENTRICITY":0.00016957,"INCLINATION":43.0081,"RA_OF_ASC_NODE":44.083,"ARG_OF_PERICENTER":279.9777,"MEAN_ANOMALY":80.0883,"EPHEMERIS_TYPE":0,"CLASSIFICATION_TYPE":"U","NORAD_CAT_ID":59662,"ELEMENT_SET_NO":999,"REV_AT_EPOCH":10431,"BSTAR":-6.3017704e-5,"MEAN_MOTION_DOT":-1.996e-5,"MEAN_MOTION_DDOT":0},{"OBJECT_NAME":"CZ-4B DEB","OBJECT_ID":"2006-015E","EPOCH":"2026-03-09T20:34:53.082912","MEAN_MOTION":15.19885806,"ECCENTRICITY":0.00461993,"INCLINATION":98.0565,"RA_OF_ASC_NODE":201.7753,"ARG_OF_PERICENTER":62.4887,"MEAN_ANOMALY":298.1031,"EPHEMERIS_TYPE":0,"CLASSIFICATION_TYPE":"U","NORAD_CAT_ID":29538,"ELEMENT_SET_NO":999,"REV_AT_EPOCH":5389,"BSTAR":0.0022587151,"MEAN_MOTION_DOT":0.00050103,"MEAN_MOTION_DDOT":0}]
